#dP2023  8 14  0  0  0.00000000      96 __u+U ITR00 EXT  IAC
## 2275  86400.00000000   900.00000000 60170 0.0000000000000
+  118   C06C07C08C09C10C11C12C13C14C16C19C20C21C22C23C24C25
+        C26C27C28C29C30C32C33C34C35C36C37C38C39C40C41C42C43
+        C44C45C46E02E03E04E05E07E08E09E10E11E12E13E14E15E18
+        E19E21E24E25E26E27E30E31E33E34E36G01G02G03G04G05G06
+        G07G08G09G10G11G12G13G14G15G16G17G18G19G20G21G23G24
+        G25G26G27G28G29G30G31G32J02J03J04R01R02R03R04R05R07
+        R08R09R11R12R13R14R15R16R17R18R19R20R21R22R24R25  0
++        10  9  9 10 10  8  9  7  8 11  7  9  8  9  8  8  7
++         8  8  8  9  8  8  7  8  9  9  8  9 11 11  9  9 10
++         8 10  8  7  7  7  8  8  8  8  7  8  8  7  8  7  7
++         7  7  7  9  7  6  7  7  8  8  7  7  8  6  7  7  6
++         8  7  8  8  7  6  8  7  8  7  8  7  7  7  7  8  6
++         7  7  7  7  7  7  6  6  9 11 10  7  7  8  8  8  7
++         7  9  8  7  7  7  8  8  7  9  9 10  7  9  7  7  0
%c M  cc GPS ccc cccc cccc cccc cccc ccccc ccccc ccccc ccccc
%c cc cc ccc ccc cccc cccc cccc cccc ccccc ccccc ccccc ccccc
%f  0.0000000  0.000000000  0.00000000000  0.000000000000000
%f  0.0000000  0.000000000  0.00000000000  0.000000000000000
%i    0    0    0    0      0      0      0      0         0
%i    0    0    0    0      0      0      0      0         0
/* IAC                                ULTRA-RAPID PREDICTION
/* S/V CLOCKS ARE ALIGNED TO GNSS TIME                      
/* G:C1WC2W R:C1PC2P E:C1XC5X C:C2IC6I J:C1CC2S             
/* PCV:IGS20_2247 OL/AL:FES2004  NONE     YN ORB:CoN CLK:CoN
*  2023 08 14  5 30  0.00000000
PC06 -18067.031364  36611.839694 -11084.888704    876.145322
PC07  -3005.889414  34742.803669 -23466.182227     72.877091
PC08 -10416.056691  19195.633034  36012.740703    390.478030
PC09 -12406.358490  35667.602707 -18898.301120    294.738856
PC10   3230.727555  37117.770145 -18874.795974   -144.996992
PC11   6546.278081 -26063.858516  -7513.704932    778.289615
PC12  16543.096587 -19859.556066  10580.546628    869.221123
PC13  -2583.685656  21844.042586  36095.532908    333.927530
PC14  -4444.102941 -22980.398692 -15232.041816    224.463522
PC16 -20095.187133  36211.116201  -8468.758693    -34.820018
PC19  12175.203948  24052.545107   7177.895753   -959.739751
PC20  -2588.668588  19159.381487  20115.059882    362.934927
PC21  17040.688933  -2240.103129 -21972.592771   -949.137669
PC22  20718.045535  15340.458001 -10660.407840   -352.262432
PC23 -23210.873593  -7108.382104  13774.963213   -905.935561
PC24  15290.893476 -14975.598309  17915.718999    281.802232
PC25  -6955.791371 -15215.233356  22327.377304    189.033839
PC26  26802.867732  -6821.355990   3842.971263   -162.958586
PC27 -18289.252799  12571.075294 -16941.726501    184.150775
PC28 -14794.427158  -5967.136495 -22893.984159    137.708624
PC29   2378.255230  23290.009464  15176.669836    160.640787
PC30 -11412.259392  25386.548378  -2123.752883     -3.460293
PC32 -17116.972485   2242.227397  21936.296959   -532.414000
PC33 -12271.128731 -24003.673786  -7252.830903   -936.853918
PC34  10587.541241 -25800.876105    737.716477    236.730470
PC35  14952.148663   5765.495405  22833.983698    568.158523
PC36   5724.818292  15552.754950 -22422.547918   -277.440624
PC37 -27162.040461   5609.703904  -2953.365628   -807.164119
PC38 -19128.125069  19528.449739  32065.515504     98.045982
PC39 -21857.650081  36143.735669  -2109.012184     -4.309767
PC40  -6826.646554  30903.494297 -27698.357663    -32.840160
PC41 -20723.273728 -15796.946257  10049.478548   -888.739100
PC42   3791.612606 -18292.180117 -20703.338842   -578.527613
PC43  -1770.857498 -23774.132462 -14504.348272     35.176810
PC44  17898.558820 -13024.282030  16964.652804    199.499230
PC45  23554.054356   6716.272938 -13386.597476    -13.758075
PC46 -13930.983245  15224.086612 -18763.160916    -76.407560
PE02  -5944.026541 -19305.448824  21635.963536     55.526994
PE03  -2432.215968 -29507.947692   -171.608976    -45.773570
PE04  13620.418502  20121.114326 -16898.772308   -188.944843
PE05  10268.237249 -21732.987747 -17277.015030      8.834357
PE07 -16971.247997    839.530565  24240.693662    -67.236472
PE08 -13375.355925 -20487.198295  16668.477895   -130.026630
PE09  16837.268226   -696.979397 -24334.767584   -119.751206
PE10  21514.373262    808.734938  20307.782301   -555.959216
PE11  25590.267506  -8016.844519  12511.778802   2719.844028
PE12  14578.733418   8885.941809  24169.871871   -657.252479
PE13 -25421.898873   7492.631339 -13182.995576    -19.430321
PE14  10565.499211  16857.037620  12473.098039    310.743408
PE15 -14215.214287  -9110.191215 -24312.312907    -44.954869
PE18 -14973.971973 -22380.987920 -18106.850719    411.315395
PE19    598.865357  29475.803224   2645.820761  -1855.090119
PE21 -13988.474802  11285.559623 -23513.230893   -546.544318
PE24  27036.892974   4242.324548  11291.982584   -264.734176
PE25  14325.455609 -11064.256583  23431.902963     -0.223178
PE26 -21167.378207  19736.892031   6184.536265    192.216791
PE27 -26870.473911  -3680.373512 -11844.145140   -124.077602
PE30 -23462.369144 -16596.532510   7068.557386   -416.404804
PE31  23796.011342  16296.839268  -6643.173609     -2.629259
PE33  -5781.889867  20322.917496  20719.611259     -1.564489
PE34   5108.928210 -20167.456799 -21072.152112    -61.438290
PE36  21593.756381 -19482.272227  -5512.675756   -100.757052
PG01   8783.625105 -18703.572545 -16829.028602    168.680415
PG02  14227.487501 -19821.169504  -9783.267416   -565.665788
PG03  -2139.109113 -16631.993969 -20769.597391   -188.003341
PG04    640.741676 -26411.996440  -1985.887041    125.043866
PG05 -14285.067496   9034.685107  20331.772361   -138.729962
PG06 -21769.731318   2361.487812 -15038.207744    566.512201
PG07  -8264.660589 -13310.754361  21910.495713     96.365781
PG08   6915.101396 -22057.949585  12643.633119   -137.089460
PG09  -6968.614716 -24641.718905   6876.716504    -87.116427
PG10  24279.500602  11108.085960  -1218.399559    -49.199282
PG11 -23454.330097  12214.606651  -2165.481123   -320.032388
PG12  -3059.038240  15566.072458 -21586.481809   -412.665497
PG13 -12963.430740  15212.247047  17194.730630    559.857812
PG14 -22916.325209 -13519.787531   1556.579902    153.440920
PG15  -3750.198239  23335.562821  11392.888329     67.460194
PG16  18694.375746  -3542.098720  18408.698809   -468.475299
PG17 -12969.381672 -12495.157174 -19051.210154    722.687908
PG18  10018.266327  11245.862326  21887.445775   -381.815980
PG19 -14754.985472  -4281.869808 -21903.917978    357.403926
PG20 -22336.201201   3620.171402  13789.860227    417.337720
PG21  15751.980112 -19222.850256  -7445.660500    150.758716
PG23  18286.138225  16281.317595  10507.030897     54.866015
PG24 -11168.443763  20671.991404 -12335.833966   -289.124139
PG25  11601.038055  18189.247679 -15978.443381    462.046967
PG26  24742.907432   2401.574076   9706.449372    233.009226
PG27  12921.673429 -11473.500444  19797.697921    -21.655928
PG28  20952.922899   -988.358959 -16313.113623     76.319305
PG29   4215.820428  25276.758608   6727.846223   -607.738374
PG30 -17042.922077  -6143.501824  19626.826505   -496.600140
PG31  24140.598977  -8910.574846  -7591.549772   -221.797238
PG32  14839.951982   8146.364862 -20334.561426   -540.200994
PJ02 -26996.253409  15200.512859 -23984.890225     -2.531708
PJ03 -27338.021080  31842.682412    770.565960     -1.036191
PJ04 -24173.344048  28144.059502  25914.248343     70.495813
PR01  13323.450977   3090.997079 -21531.937593     63.452287
PR02   3852.586573 -14178.736928 -20792.537160    -22.529948
PR03  -7502.703359 -23051.523671  -7800.924152     83.268289
PR04 -14196.035311 -19105.327965   9179.123602    198.619025
PR05 -13328.375639  -4812.815821  21210.994945    117.303193
PR07   7925.133084  23221.818043   7102.650645     62.390510
PR08  14368.464917  18953.464141  -9208.739673    -72.117604
PR09 -15371.988861   8710.962582 -18410.716468    136.597969
PR11  19014.318403   7937.601906 -15009.014069   -131.811445
PR12  25288.647258   -369.263335   3397.593689     30.158290
PR13  17155.308452  -7642.003362  17253.476110    -38.130278
PR14  -3154.076216 -11195.572123  22721.836809     25.093293
PR15 -19906.137023  -7756.763648  13969.523267     87.025870
PR16 -25344.295264    339.263693  -3021.484528     17.684372
PR17   5348.186529 -20168.926974 -14702.616254      8.674210
PR18  -6442.207972  -8926.466363 -22994.827819     96.670646
PR19 -14694.155176   4988.632096 -20243.990607   -243.431832
PR20 -15923.616850  19723.564102  -2986.387118    -98.269782
PR21  -4709.236863  19591.068623  15615.819272    -30.225478
PR22   7149.723539   8565.445742  22962.592211    112.700062
PR24  15057.723544 -20470.832271   2372.093493    -20.398580
PR25  -6076.175279  20007.652697  14593.399592     42.735498
EOF
